      2.10          N: GNSS NAV DATA                        RINEX VERSION / TYPE
fic2rin                                 09/15/2024 00:59:03 PGM / RUN BY / DATE
                                                            END OF HEADER
26 24  9 14 11 59 44.0  .791321508586D-04 -.852651282912D-11  .000000000000D+00
     .800000000000D+01  .188750000000D+02  .551308678505D-08  .919587508991D+00
     .108219683170D-05  .919525453355D-02  .530853867531D-05  .515368866730D+04
     .561584000000D+06 -.106170773506D-06 -.203827903608D+01  .119209289551D-06
     .930323127464D+00  .260937500000D+03  .553204287156D+00 -.856571393922D-08
    -.112861844006D-09  .100000000000D+01  .233100000000D+04  .000000000000D+00
     .240000000000D+01  .000000000000D+00  .651925802231D-08  .800000000000D+01
     .555390000000D+06  .400000000000D+01
7  24  9 14 11 59 28.0 -.380217097700D-04  .454747350886D-11  .000000000000D+00
     .340000000000D+02  .937500000000D+00  .450018745087D-08  .251272364962D+01
    -.109896063805D-06  .187311695190D-01  .997819006443D-05  .515361004829D+04
     .561568000000D+06  .124797224998D-06 -.300171784951D+01 -.296160578728D-06
     .950788037692D+00  .177437500000D+03 -.210168580285D+01 -.760388816103D-08
     .458590530708D-09  .100000000000D+01  .233100000000D+04  .000000000000D+00
     .240000000000D+01  .000000000000D+00 -.107102096081D-07  .340000000000D+02
     .558180000000D+06  .400000000000D+01
5  24  9 14 11 59 44.0 -.186553224921D-03 -.125055521494D-11  .000000000000D+00
     .130000000000D+02 -.262812500000D+02  .462447834237D-08 -.628975941818D+00
    -.127032399178D-05  .588848756161D-02  .181980431080D-05  .515367032623D+04
     .561584000000D+06 -.931322574615D-07  .113879351368D+01 -.204890966415D-07
     .972685836681D+00  .348250000000D+03  .132888936208D+01 -.844963767561D-08
    -.757174396496D-10  .100000000000D+01  .233100000000D+04  .000000000000D+00
     .240000000000D+01  .000000000000D+00 -.107102096081D-07  .130000000000D+02
     .558450000000D+06  .400000000000D+01
7  24  9 14 13 59 28.0 -.379891134799D-04  .454747350886D-11  .000000000000D+00
     .175000000000D+03  .428125000000D+01  .450840207876D-08 -.272024036685D+01
     .162050127983D-06  .187306321459D-01  .101104378700D-04  .515361102104D+04
     .568768000000D+06  .238418579102D-06 -.300177267968D+01 -.163912773132D-06
     .950791408256D+00  .174968750000D+03 -.210168749837D+01 -.760103089916D-08
     .517878714584D-09  .100000000000D+01  .233100000000D+04  .000000000000D+00
     .240000000000D+01  .000000000000D+00 -.107102096081D-07  .175000000000D+03
     .561600000000D+06  .400000000000D+01
5  24  9 14 13 59 44.0 -.186562072486D-03 -.125055521494D-11  .000000000000D+00
     .140000000000D+02 -.204375000000D+02  .468519515718D-08  .421287976861D+00
    -.905245542526D-06  .588853412773D-02  .176578760147D-05  .515367049980D+04
     .568784000000D+06  .167638063431D-07  .113873196579D+01  .242143869400D-07
     .972685517765D+00  .352093750000D+03  .132880900545D+01 -.849535386559D-08
     .171435712414D-10  .100000000000D+01  .233100000000D+04  .000000000000D+00
     .240000000000D+01  .000000000000D+00 -.107102096081D-07  .140000000000D+02
     .561600000000D+06  .400000000000D+01
3  24  9 14 14  0  0.0  .537403393537D-03  .131876731757D-10  .000000000000D+00
     .190000000000D+02 -.376875000000D+02  .436911056242D-08  .299901455976D+01
    -.196695327759D-05  .572447688319D-02  .103749334812D-05  .515366035271D+04
     .568800000000D+06  .186264514923D-07  .119152285393D+01 -.128522515297D-06
     .985744336460D+00  .370000000000D+03  .116169678650D+01 -.823748598150D-08
    -.492877673191D-10  .100000000000D+01  .233100000000D+04  .000000000000D+00
     .240000000000D+01  .000000000000D+00  .139698386192D-08  .190000000000D+02
     .561600000000D+06  .400000000000D+01
2  24  9 14 14  0  0.0 -.358226243407D-03  .795807864051D-11  .000000000000D+00
     .650000000000D+02  .113906250000D+03  .441982696068D-08  .271487978735D+00
     .580027699471D-05  .161251400132D-01  .784173607826D-05  .515369129372D+04
     .568800000000D+06 -.707805156708D-07  .551065045957D-01 -.232830643654D-06
     .967314817802D+00  .234781250000D+03 -.113277737864D+01 -.835891961113D-08
     .247510309798D-09  .100000000000D+01  .233100000000D+04  .000000000000D+00
     .240000000000D+01  .000000000000D+00 -.176951289177D-07  .650000000000D+02
     .561600000000D+06  .400000000000D+01
1  24  9 14 14  0  0.0  .197995919734D-03 -.943600753089D-11  .000000000000D+00
     .340000000000D+02  .103750000000D+02  .625704634538D-08  .156309766481D+01
     .393018126488D-06  .134482190479D-01  .588037073612D-05  .515360801697D+04
     .568800000000D+06 -.247731804848D-06 -.193934298503D+01 -.100582838058D-06
     .953522076513D+00  .264750000000D+03  .103518104018D+01 -.833499004293D-08
    -.177150236161D-09  .100000000000D+01  .233100000000D+04  .000000000000D+00
     .240000000000D+01  .630000000000D+02 -.195577740669D-07  .340000000000D+02
     .561600000000D+06  .400000000000D+01
12 24  9 14 14  0  0.0 -.537988729775D-03 -.284217094304D-11  .000000000000D+00
     .340000000000D+02  .231250000000D+01  .467912347570D-08  .284202628251D+01
     .193715095520D-06  .869453267660D-02  .564381480217D-05  .515358779907D+04
     .568800000000D+06  .614672899246D-07 -.188591374966D+01 -.186264514923D-07
     .961438645996D+00  .269062500000D+03  .146207432225D+01 -.795711716015D-08
    -.161435295857D-09  .100000000000D+01  .233100000000D+04  .000000000000D+00
     .240000000000D+01  .000000000000D+00 -.125728547573D-07  .340000000000D+02
     .561600000000D+06  .400000000000D+01
6  24  9 14 14  0  0.0  .313809141517D-04 -.260342858383D-10  .000000000000D+00
     .106000000000D+03  .107562500000D+03  .390087677289D-08 -.180391244561D+01
     .561960041523D-05  .302350660786D-02  .745616853237D-05  .515369527245D+04
     .568800000000D+06 -.149011611938D-06  .155790814433D+00 -.130385160446D-07
     .989883965989D+00  .254625000000D+03 -.753167752071D+00 -.779782481070D-08
     .310012913282D-09  .100000000000D+01  .233100000000D+04  .000000000000D+00
     .240000000000D+01  .000000000000D+00  .372529029846D-08  .106000000000D+03
     .561600000000D+06  .400000000000D+01
4  24  9 14 14  0  0.0  .443516764790D-03  .716227077646D-11  .000000000000D+00
     .430000000000D+02 -.131406250000D+03  .420838958203D-08 -.209906619202D+00
    -.699795782566D-05  .302085687872D-02  .949017703533D-05  .515371528244D+04
     .568800000000D+06  .279396772385D-07  .226952867477D+01  .484287738800D-07
     .965727006018D+00  .198375000000D+03 -.300092944638D+01 -.791032949697D-08
    -.219652006531D-09  .100000000000D+01  .233100000000D+04  .000000000000D+00
     .240000000000D+01  .000000000000D+00 -.465661287308D-08  .299000000000D+03
     .561600000000D+06  .400000000000D+01
29 24  9 14 14  0  0.0 -.577903352678D-03  .250111042988D-11  .000000000000D+00
     .400000000000D+01  .276562500000D+02  .407195532757D-08  .325022887994D-01
     .147894024849D-05  .291602476500D-02  .964291393757D-05  .515377491570D+04
     .568800000000D+06  .577419996262D-07 -.831616397601D+00 -.111758708954D-07
     .969652180534D+00  .196031250000D+03  .267353869674D+01 -.782104006343D-08
    -.300012496725D-09  .100000000000D+01  .233100000000D+04  .000000000000D+00
     .240000000000D+01  .000000000000D+00 -.977888703346D-08  .400000000000D+01
     .561600000000D+06  .400000000000D+01
22 24  9 14 14  0  0.0 -.617587938905D-04 -.375166564481D-11  .000000000000D+00
     .130000000000D+02  .365625000000D+01  .494663461862D-08  .597526343999D+00
     .223517417908D-07  .141072733095D-01  .559352338314D-05  .515367869186D+04
     .568800000000D+06 -.577419996262D-07 -.186487686333D+01 -.216066837311D-06
     .960188449372D+00  .273125000000D+03 -.111538847019D+01 -.843392273531D-08
    -.193936649668D-09  .100000000000D+01  .233100000000D+04  .000000000000D+00
     .240000000000D+01  .000000000000D+00 -.111758708954D-07  .130000000000D+02
     .561600000000D+06  .400000000000D+01
24 24  9 14 14  0  0.0 -.486691482365D-03  .227373675443D-12  .000000000000D+00
     .140000000000D+02  .568750000000D+01  .490341853278D-08 -.177219351872D+01
     .286847352982D-06  .158909567399D-01  .997446477413D-05  .515369952774D+04
     .568800000000D+06  .299885869026D-06 -.310068207051D+01 -.119209289551D-06
     .934535169975D+00  .171218750000D+03  .100729683851D+01 -.791282960111D-08
     .395730769489D-09  .100000000000D+01  .233100000000D+04  .000000000000D+00
     .240000000000D+01  .000000000000D+00  .232830643654D-08  .140000000000D+02
     .561600000000D+06  .400000000000D+01
26 24  9 14 14  0  0.0  .790711492300D-04 -.852651282912D-11  .000000000000D+00
     .120000000000D+02  .163750000000D+02  .552201572841D-08  .197204246787D+01
     .789761543274D-06  .919535499997D-02  .558048486710D-05  .515368968964D+04
     .568800000000D+06 -.163912773132D-06 -.203834092776D+01  .931322574615D-08
     .930322325785D+00  .258093750000D+03  .553261784225D+00 -.852106922245D-08
    -.102147111980D-09  .100000000000D+01  .233100000000D+04  .000000000000D+00
     .240000000000D+01  .000000000000D+00  .651925802231D-08  .120000000000D+02
     .561600000000D+06  .400000000000D+01
31 24  9 14 14  0  0.0 -.224710907787D-03  .454747350886D-12  .000000000000D+00
     .470000000000D+02  .600000000000D+01  .460304887832D-08  .254851282130D+01
     .726431608200D-07  .106386751868D-01  .100526958704D-04  .515378052902D+04
     .568800000000D+06 -.428408384323D-07 -.297980320355D+01 -.111758708954D-06
     .954733741338D+00  .183250000000D+03  .726791330325D+00 -.782139722116D-08
     .397159400426D-09  .100000000000D+01  .233100000000D+04  .000000000000D+00
     .240000000000D+01  .000000000000D+00 -.130385160446D-07  .470000000000D+02
     .561600000000D+06  .400000000000D+01
